start=new Date('2022-05-30T00:00:00.000Z').valueOf();
sats=[{"CENTER_NAME":"EARTH","SEMIMAJOR_AXIS":"6925.375","INCLINATION":"53.0557","OBJECT_NAME":"STARLINK-2405","MEAN_ANOMALY":"309.8412","APOAPSIS":"548.613","RA_OF_ASC_NODE":"355.8932","ELEMENT_SET_NO":"999","COUNTRY_CODE":"US","OBJECT_TYPE":"PAYLOAD","PERIOD":"95.593","MEAN_MOTION_DDOT":"0.0000000000000","NORAD_CAT_ID":"47919","REF_FRAME":"TEME","SITE":"AFETR","GP_ID":"204890023","FILE":"3471362","EPOCH":"2022-05-29T20:42:41.357088","BSTAR":"0.00000327400000","TLE_LINE2":"2 47919  53.0557 355.8932 0001982  50.2751 309.8412 15.06391322 68061","CLASSIFICATION_TYPE":"U","MEAN_MOTION":"15.06391322","REV_AT_EPOCH":"6806","TLE_LINE1":"1 47919U 21021BM  22149.86297867 -.00000233  00000-0  32740-5 0  9997","ARG_OF_PERICENTER":"50.2751","EPHEMERIS_TYPE":"0","LAUNCH_DATE":"2021-03-14","TIME_SYSTEM":"UTC","PERIAPSIS":"545.868","OBJECT_ID":"2021-021BM","MEAN_ELEMENT_THEORY":"SGP4","RCS_SIZE":"LARGE","ECCENTRICITY":"0.00019820","MEAN_MOTION_DOT":"-0.00000233","DECAY_DATE":null},{"RA_OF_ASC_NODE":"40.8623","OBJECT_NAME":"STARLINK-2087","MEAN_ANOMALY":"301.4804","APOAPSIS":"548.520","INCLINATION":"53.0572","SEMIMAJOR_AXIS":"6925.438","CENTER_NAME":"EARTH","TLE_LINE2":"2 47977  53.0572  40.8623 0001758  58.6357 301.4804 15.06370935 66737","EPOCH":"2022-05-29T20:55:18.638400","BSTAR":"0.00015579000000","SITE":"AFETR","FILE":"3471362","GP_ID":"204890276","COUNTRY_CODE":"US","OBJECT_TYPE":"PAYLOAD","MEAN_MOTION_DDOT":"0.0000000000000","PERIOD":"95.594","NORAD_CAT_ID":"47977","REF_FRAME":"TEME","ELEMENT_SET_NO":"999","ARG_OF_PERICENTER":"58.6357","EPHEMERIS_TYPE":"0","REV_AT_EPOCH":"6673","TLE_LINE1":"1 47977U 21024A   22149.87174350  .00002038  00000-0  15579-3 0  9999","MEAN_MOTION":"15.06370935","CLASSIFICATION_TYPE":"U","DECAY_DATE":null,"MEAN_MOTION_DOT":"0.00002038","MEAN_ELEMENT_THEORY":"SGP4","RCS_SIZE":"LARGE","ECCENTRICITY":"0.00017580","OBJECT_ID":"2021-024A","TIME_SYSTEM":"UTC","PERIAPSIS":"546.085","LAUNCH_DATE":"2021-03-24"},{"EPHEMERIS_TYPE":"0","ARG_OF_PERICENTER":"62.8227","REV_AT_EPOCH":"6659","TLE_LINE1":"1 47978U 21024B   22149.89293560 -.00001481  00000-0 -80558-4 0  9990","MEAN_MOTION":"15.06387319","CLASSIFICATION_TYPE":"U","DECAY_DATE":null,"MEAN_MOTION_DOT":"-0.00001481","MEAN_ELEMENT_THEORY":"SGP4","ECCENTRICITY":"0.00017280","RCS_SIZE":"LARGE","OBJECT_ID":"2021-024B","TIME_SYSTEM":"UTC","PERIAPSIS":"546.056","LAUNCH_DATE":"2021-03-24","RA_OF_ASC_NODE":"50.7634","OBJECT_NAME":"STARLINK-1647","MEAN_ANOMALY":"297.2938","APOAPSIS":"548.449","INCLINATION":"53.0564","SEMIMAJOR_AXIS":"6925.387","CENTER_NAME":"EARTH","TLE_LINE2":"2 47978  53.0564  50.7634 0001728  62.8227 297.2938 15.06387319 66599","EPOCH":"2022-05-29T21:25:49.635840","BSTAR":"-0.00008055800000","SITE":"AFETR","FILE":"3471362","GP_ID":"204889029","OBJECT_TYPE":"PAYLOAD","COUNTRY_CODE":"US","MEAN_MOTION_DDOT":"0.0000000000000","PERIOD":"95.593","REF_FRAME":"TEME","NORAD_CAT_ID":"47978","ELEMENT_SET_NO":"999"},{"TIME_SYSTEM":"UTC","PERIAPSIS":"548.491","LAUNCH_DATE":"2021-03-24","MEAN_MOTION_DOT":"0.00397593","DECAY_DATE":null,"OBJECT_ID":"2021-024C","MEAN_ELEMENT_THEORY":"SGP4","RCS_SIZE":"LARGE","ECCENTRICITY":"0.00017030","CLASSIFICATION_TYPE":"U","MEAN_MOTION":"15.05598573","EPHEMERIS_TYPE":"0","ARG_OF_PERICENTER":"52.1159","TLE_LINE1":"1 47979U 21024C   22149.91667824  .00397593  00000-0  25790-1 0  9996","REV_AT_EPOCH":"6698","OBJECT_TYPE":"PAYLOAD","COUNTRY_CODE":"US","MEAN_MOTION_DDOT":"0.0000000000000","PERIOD":"95.643","NORAD_CAT_ID":"47979","REF_FRAME":"TEME","ELEMENT_SET_NO":"999","EPOCH":"2022-05-29T22:00:00.999936","BSTAR":"0.02579000000000","TLE_LINE2":"2 47979  53.0549 345.6631 0001703  52.1159  55.7017 15.05598573 66988","SITE":"AFETR","GP_ID":"204862091","FILE":"3471098","SEMIMAJOR_AXIS":"6927.806","CENTER_NAME":"EARTH","INCLINATION":"53.0549","MEAN_ANOMALY":"55.7017","OBJECT_NAME":"STARLINK-2325","APOAPSIS":"550.851","RA_OF_ASC_NODE":"345.6631"},{"APOAPSIS":"550.953","MEAN_ANOMALY":"16.7879","OBJECT_NAME":"STARLINK-2312","RA_OF_ASC_NODE":"325.6593","SEMIMAJOR_AXIS":"6927.878","CENTER_NAME":"EARTH","INCLINATION":"53.0545","FILE":"3471362","GP_ID":"204890530","SITE":"AFETR","EPOCH":"2022-05-29T22:00:00.999936","BSTAR":"-0.03363400000000","TLE_LINE2":"2 47980  53.0545 325.6593 0001747  43.4586  16.7879 15.05575175  1307","ELEMENT_SET_NO":"999","REF_FRAME":"TEME","NORAD_CAT_ID":"47980","MEAN_MOTION_DDOT":"0.0000000000000","COUNTRY_CODE":"US","OBJECT_TYPE":"PAYLOAD","PERIOD":"95.645","TLE_LINE1":"1 47980U 21024D   22149.91667824 -.00463960  00000-0 -33634-1 0  9998","REV_AT_EPOCH":"130","ARG_OF_PERICENTER":"43.4586","EPHEMERIS_TYPE":"0","CLASSIFICATION_TYPE":"U","MEAN_MOTION":"15.05575175","OBJECT_ID":"2021-024D","ECCENTRICITY":"0.00017470","RCS_SIZE":"LARGE","MEAN_ELEMENT_THEORY":"SGP4","MEAN_MOTION_DOT":"-0.00463960","DECAY_DATE":null,"LAUNCH_DATE":"2021-03-24","PERIAPSIS":"548.532","TIME_SYSTEM":"UTC"},{"OBJECT_ID":"2021-024E","ECCENTRICITY":"0.00017150","RCS_SIZE":"LARGE","MEAN_ELEMENT_THEORY":"SGP4","MEAN_MOTION_DOT":"-0.00000697","DECAY_DATE":null,"LAUNCH_DATE":"2021-03-24","PERIAPSIS":"546.058","TIME_SYSTEM":"UTC","REV_AT_EPOCH":"6659","TLE_LINE1":"1 47981U 21024E   22149.88187288 -.00000697  00000-0 -27893-4 0  9993","EPHEMERIS_TYPE":"0","ARG_OF_PERICENTER":"70.6289","CLASSIFICATION_TYPE":"U","MEAN_MOTION":"15.06389508","GP_ID":"204890777","FILE":"3471362","SITE":"AFETR","EPOCH":"2022-05-29T21:09:53.816832","BSTAR":"-0.00002789300000","TLE_LINE2":"2 47981  53.0557  50.8130 0001715  70.6289 289.4885 15.06389508 66594","ELEMENT_SET_NO":"999","NORAD_CAT_ID":"47981","REF_FRAME":"TEME","OBJECT_TYPE":"PAYLOAD","COUNTRY_CODE":"US","MEAN_MOTION_DDOT":"0.0000000000000","PERIOD":"95.593","APOAPSIS":"548.433","OBJECT_NAME":"STARLINK-2303","MEAN_ANOMALY":"289.4885","RA_OF_ASC_NODE":"50.8130","CENTER_NAME":"EARTH","SEMIMAJOR_AXIS":"6925.381","INCLINATION":"53.0557"},{"SEMIMAJOR_AXIS":"6925.502","CENTER_NAME":"EARTH","INCLINATION":"53.0545","APOAPSIS":"548.709","MEAN_ANOMALY":"256.5018","OBJECT_NAME":"STARLINK-2317","RA_OF_ASC_NODE":"340.6548","ELEMENT_SET_NO":"999","REF_FRAME":"TEME","NORAD_CAT_ID":"47982","OBJECT_TYPE":"PAYLOAD","COUNTRY_CODE":"US","MEAN_MOTION_DDOT":"0.0000000000000","PERIOD":"95.595","GP_ID":"204889530","FILE":"3471362","SITE":"AFETR","EPOCH":"2022-05-29T22:00:00.999936","BSTAR":"0.00228580000000","TLE_LINE2":"2 47982  53.0545 340.6548 0001937  37.5330 256.5018 15.06349821  1305","CLASSIFICATION_TYPE":"U","MEAN_MOTION":"15.06349821","REV_AT_EPOCH":"130","TLE_LINE1":"1 47982U 21024F   22149.91667824  .00033884  00000-0  22858-2 0  9993","EPHEMERIS_TYPE":"0","ARG_OF_PERICENTER":"37.5330","LAUNCH_DATE":"2021-03-24","PERIAPSIS":"546.026","TIME_SYSTEM":"UTC","OBJECT_ID":"2021-024F","ECCENTRICITY":"0.00019370","RCS_SIZE":"LARGE","MEAN_ELEMENT_THEORY":"SGP4","MEAN_MOTION_DOT":"0.00033884","DECAY_DATE":null},{"TLE_LINE1":"1 47985U 21024J   22149.91948193 -.00104778  00000-0 -73089-2 0  9992","REV_AT_EPOCH":"6744","ARG_OF_PERICENTER":"68.5426","EPHEMERIS_TYPE":"0","CLASSIFICATION_TYPE":"U","MEAN_MOTION":"15.05427766","OBJECT_ID":"2021-024J","RCS_SIZE":"LARGE","ECCENTRICITY":"0.00016060","MEAN_ELEMENT_THEORY":"SGP4","MEAN_MOTION_DOT":"-0.00104778","DECAY_DATE":null,"LAUNCH_DATE":"2021-03-24","PERIAPSIS":"549.082","TIME_SYSTEM":"UTC","APOAPSIS":"551.308","OBJECT_NAME":"STARLINK-2308","MEAN_ANOMALY":"291.5734","RA_OF_ASC_NODE":"345.6738","CENTER_NAME":"EARTH","SEMIMAJOR_AXIS":"6928.330","INCLINATION":"53.0563","FILE":"3471362","GP_ID":"204889780","SITE":"AFETR","EPOCH":"2022-05-29T22:04:03.238752","BSTAR":"-0.00730890000000","TLE_LINE2":"2 47985  53.0563 345.6738 0001606  68.5426 291.5734 15.05427766 67442","ELEMENT_SET_NO":"999","REF_FRAME":"TEME","NORAD_CAT_ID":"47985","COUNTRY_CODE":"US","MEAN_MOTION_DDOT":"0.0000000000000","OBJECT_TYPE":"PAYLOAD","PERIOD":"95.654"},{"DECAY_DATE":null,"MEAN_MOTION_DOT":"0.00445429","ECCENTRICITY":"0.00071760","RCS_SIZE":"LARGE","MEAN_ELEMENT_THEORY":"SGP4","OBJECT_ID":"2021-024M","PERIAPSIS":"282.537","TIME_SYSTEM":"UTC","LAUNCH_DATE":"2021-03-24","ARG_OF_PERICENTER":"278.4098","EPHEMERIS_TYPE":"0","REV_AT_EPOCH":"130","TLE_LINE1":"1 47988U 21024M   22149.91667824  .00445429  91016-4  11028-2 0  9999","MEAN_MOTION":"15.95357469","CLASSIFICATION_TYPE":"U","TLE_LINE2":"2 47988  53.0396 327.8856 0007176 278.4098 100.4505 15.95357469  1305","BSTAR":"0.00110280000000","EPOCH":"2022-05-29T22:00:00.999936","GP_ID":"204890030","FILE":"3471362","SITE":"AFETR","REF_FRAME":"TEME","NORAD_CAT_ID":"47988","COUNTRY_CODE":"US","OBJECT_TYPE":"PAYLOAD","MEAN_MOTION_DDOT":"0.0000910160000","PERIOD":"90.262","ELEMENT_SET_NO":"999","RA_OF_ASC_NODE":"327.8856","APOAPSIS":"292.104","MEAN_ANOMALY":"100.4505","OBJECT_NAME":"STARLINK-2306","INCLINATION":"53.0396","SEMIMAJOR_AXIS":"6665.456","CENTER_NAME":"EARTH"},{"FILE":"3471101","GP_ID":"204862098","SITE":"AFETR","EPOCH":"2022-05-29T22:00:00.999936","BSTAR":"0.00355160000000","TLE_LINE2":"2 47989  53.0548 320.6726 0001559  80.9171 263.0060 15.06364369 67324","ELEMENT_SET_NO":"999","REF_FRAME":"TEME","NORAD_CAT_ID":"47989","PERIOD":"95.594","COUNTRY_CODE":"US","OBJECT_TYPE":"PAYLOAD","MEAN_MOTION_DDOT":"0.0000000000000","APOAPSIS":"548.402","OBJECT_NAME":"STARLINK-2305","MEAN_ANOMALY":"263.0060","RA_OF_ASC_NODE":"320.6726","CENTER_NAME":"EARTH","SEMIMAJOR_AXIS":"6925.458","INCLINATION":"53.0548","OBJECT_ID":"2021-024N","RCS_SIZE":"LARGE","ECCENTRICITY":"0.00015590","MEAN_ELEMENT_THEORY":"SGP4","MEAN_MOTION_DOT":"0.00052967","DECAY_DATE":null,"LAUNCH_DATE":"2021-03-24","PERIAPSIS":"546.243","TIME_SYSTEM":"UTC","REV_AT_EPOCH":"6732","TLE_LINE1":"1 47989U 21024N   22149.91667824  .00052967  00000-0  35516-2 0  9998","ARG_OF_PERICENTER":"80.9171","EPHEMERIS_TYPE":"0","CLASSIFICATION_TYPE":"U","MEAN_MOTION":"15.06364369"}];
